[{"OBJECT_NAME":"YAOGAN-30 06A","OBJECT_ID":"2019-045A","EPOCH":"2026-03-09T19:51:27.981216","MEAN_MOTION":15.02102304,"ECCENTRICITY":0.00031894,"INCLINATION":34.9928,"RA_OF_ASC_NODE":215.4318,"ARG_OF_PERICENTER":139.0512,"MEAN_ANOMALY":221.0436,"EPHEMERIS_TYPE":0,"CLASSIFICATION_TYPE":"U","NORAD_CAT_ID":44449,"ELEMENT_SET_NO":999,"REV_AT_EPOCH":36166,"BSTAR":0.00032896599,"MEAN_MOTION_DOT":4.384e-5,"MEAN_MOTION_DDOT":0},{"OBJECT_NAME":"STARLINK-5880","OBJECT_ID":"2023-094C","EPOCH":"2026-03-09T06:15:36.503424","MEAN_MOTION":15.02534794,"ECCENTRICITY":0.00012624,"INCLINATION":43.0042,"RA_OF_ASC_NODE":32.8163,"ARG_OF_PERICENTER":275.0069,"MEAN_ANOMALY":85.0629,"EPHEMERIS_TYPE":0,"CLASSIFICATION_TYPE":"U","NORAD_CAT_ID":57220,"ELEMENT_SET_NO":999,"REV_AT_EPOCH":14705,"BSTAR":2.3972433e-5,"MEAN_MOTION_DOT":1.2e-6,"MEAN_MOTION_DDOT":0}]
