YAOGAN-30 06A           
1 44449U 19045A   26068.82740719  .00004384  00000+0  32897-3 0  9994
2 44449  34.9928 215.4318 0003189 139.0512 221.0436 15.02102304361666
STARLINK-5880           
1 57220U 23094C   26068.26083916  .00000120  00000+0  23972-4 0  9990
2 57220  43.0042  32.8163 0001262 275.0069  85.0629 15.02534794147051
